OBJECT_NAME,OBJECT_ID,EPOCH,MEAN_MOTION,ECCENTRICITY,INCLINATION,RA_OF_ASC_NODE,ARG_OF_PERICENTER,MEAN_ANOMALY,EPHEMERIS_TYPE,CLASSIFICATION_TYPE,NORAD_CAT_ID,ELEMENT_SET_NO,REV_AT_EPOCH,BSTAR,MEAN_MOTION_DOT,MEAN_MOTION_DDOT
GSAT-18,2016-060A,2026-06-13T01:31:38.534016,1.00270775,.0005476,0.0518,105.7622,326.1953,286.3223,0,U,41793,999,3548,0,-.63E-6,0
SKY MUSTER 2 (NBN1B),2016-060B,2026-06-12T17:18:31.185792,1.00269896,.00013142,0.0174,328.2395,109.5436,227.7023,0,U,41794,999,3547,0,-.23E-5,0
HIMAWARI-9,2016-064A,2026-06-13T06:25:40.872288,1.00270416,.00008132,0.0513,137.6651,359.9689,1.1480,0,U,41836,999,3517,0,-.262E-5,0
SHIJIAN-17 (SJ-17),2016-065A,2026-06-11T13:49:42.568896,0.99853586,.0001784,5.7379,72.6706,27.9307,250.9664,0,U,41838,999,3514,0,.46E-6,0
GOES 16,2016-071A,2026-06-13T05:03:21.373056,1.00270074,.00002294,0.3305,85.5460,292.4493,214.6862,0,U,41866,999,3506,0,-.78E-6,0
TIANLIAN 1-04,2016-072A,2026-06-13T05:26:14.301024,1.00270734,.00421501,0.8580,82.9435,89.7371,347.2197,0,U,41869,999,3526,0,.43E-6,0
WGS F8 (USA 272),2016-075A,2026-06-12T20:45:15.079104,1.00266841,.0000228,0.0398,45.6063,279.8306,36.8804,0,U,41879,999,3477,0,0,0
FENGYUN 4A,2016-077A,2026-06-13T06:53:45.293856,1.00270763,.00086279,2.3115,80.3373,152.5908,255.8996,0,U,41882,999,3489,0,-.346E-5,0
ECHOSTAR 19,2016-079A,2026-06-13T05:50:53.428416,1.00269582,.00011803,0.0166,15.7997,57.7099,178.6741,0,U,41893,999,3466,0,-.126E-5,0
JCSAT-110A (JCSAT-15),2016-082A,2026-06-13T06:49:53.164704,1.00269808,.0000448,0.0172,357.4526,126.0848,350.6044,0,U,41903,999,3472,0,-.338E-5,0
STAR ONE D1,2016-082B,2026-06-13T06:15:12.002976,1.00271904,.00022993,0.0142,42.0623,52.6348,176.6877,0,U,41904,999,3473,0,-.199E-5,0
TJS-2,2017-001A,2026-06-13T01:29:31.236576,1.00272819,.00005074,0.8224,85.3786,44.1815,220.7677,0,U,41911,999,3467,0,.6E-7,0
SBIRS GEO-4 (USA 273),2017-004A,2026-06-13T06:24:27.514368,1.00271427,.00019106,2.2354,43.1647,32.9749,302.4613,0,U,41937,999,3455,0,.134E-5,0
HISPASAT 36W-1,2017-006A,2026-06-12T09:36:22.253184,1.00274187,.00011969,0.0083,275.5555,173.4599,279.8251,0,U,41942,999,3419,0,-.229E-5,0
TELKOM 3S,2017-007A,2026-06-13T06:52:15.437856,1.00272621,.00020083,0.0199,31.5950,44.3167,46.7589,0,U,41944,999,3410,0,-.35E-5,0
INTELSAT 32E (IS-32E),2017-007B,2026-06-12T09:23:10.538880,1.00277242,.00004384,0.0171,333.1752,350.3516,34.8174,0,U,41945,999,3417,0,-.253E-5,0
ECHOSTAR 23,2017-014A,2026-06-12T21:13:46.612992,1.00270657,.00019136,0.0263,0.1393,80.2398,29.3718,0,U,42070,999,3388,0,0,0
WGS F9 (USA 275),2017-016A,2026-06-12T16:33:47.983680,1.00270053,.00002221,0.0138,310.2654,359.2743,187.9245,0,U,42075,999,3385,0,-.82E-6,0
SES-10,2017-017A,2026-06-12T19:43:28.299648,1.00270431,.00026109,0.0216,32.9552,54.5627,42.6032,0,U,42432,999,3371,0,-.259E-5,0
CHINASAT 16 (SJ-13),2017-018A,2026-06-11T18:12:47.472192,1.00270081,.00039261,0.0980,91.3752,138.4966,53.9780,0,U,42662,999,3369,0,-.336E-5,0
KOREASAT 7,2017-023A,2026-06-13T06:51:37.998144,1.00272687,.00007511,0.0214,17.8161,59.6941,42.8934,0,U,42691,999,3333,0,-.349E-5,0
SGDC,2017-023B,2026-06-12T11:36:18.281088,1.00270110,.00026121,0.0401,75.3248,16.6855,268.0292,0,U,42692,999,3335,0,-.235E-5,0
GSAT-9,2017-024A,2026-06-13T01:38:22.887744,1.00265516,.00025463,0.0324,59.4256,27.0024,296.9491,0,U,42695,999,3325,0,0,0
INMARSAT 5-F4,2017-025A,2026-06-13T01:26:39.012000,1.00272793,.00004452,0.0187,14.9513,345.1555,339.4217,0,U,42698,999,3323,0,.88E-6,0
SES-15,2017-026A,2026-06-12T16:00:23.334336,1.00271358,.00008809,0.0213,330.6262,52.5288,348.7826,0,U,42709,999,738,0,.74E-6,0
QZS-2 (MICHIBIKI-2),2017-028A,2026-06-09T12:56:43.810944,1.00285994,.07605811,39.4388,243.2674,269.1776,81.0235,0,U,42738,999,754,0,-.147E-5,0
VIASAT-2,2017-029A,2026-06-12T14:34:20.186976,1.00272406,.00001193,0.0183,295.2615,118.2760,356.0955,0,U,42740,999,3315,0,-.251E-5,0
EUTELSAT 172B,2017-029B,2026-06-12T20:51:29.481408,1.00270798,.00002316,0.0459,141.9963,116.2900,127.7980,0,U,42741,999,3369,0,.8E-7,0
GSAT-19,2017-031A,2026-06-12T23:41:33.146880,1.00273025,.00071572,0.0489,265.9217,159.9901,238.6390,0,U,42747,999,3310,0,.139E-5,0
ECHOSTAR 21,2017-032A,2026-06-13T06:21:27.800640,1.00272051,.00020539,1.7715,355.4438,94.1521,277.6181,0,U,42749,999,3306,0,.77E-6,0
BULGARIASAT-1,2017-038A,2026-06-13T01:11:03.007968,1.00269518,.00031809,0.0125,319.4488,137.1834,184.3996,0,U,42801,999,3280,0,.24E-6,0
HELLAS-SAT 3,2017-040A,2026-06-13T06:29:42.011232,1.00269212,.00047762,0.0408,33.5768,18.1739,346.2574,0,U,42814,999,3276,0,.165E-5,0
