GSAT-18                 
1 41793U 16060A   26164.06364044 -.00000063  00000+0  00000+0 0  9991
2 41793   0.0518 105.7622 0005476 326.1953 286.3223  1.00270775 35489
SKY MUSTER 2 (NBN1B)    
1 41794U 16060B   26163.72119428 -.00000230  00000+0  00000+0 0  9994
2 41794   0.0174 328.2395 0001314 109.5436 227.7023  1.00269896 35471
HIMAWARI-9              
1 41836U 16064A   26164.26783417 -.00000262  00000+0  00000+0 0  9995
2 41836   0.0513 137.6651 0000813 359.9689   1.1480  1.00270416 35174
SHIJIAN-17 (SJ-17)      
1 41838U 16065A   26162.57618714  .00000046  00000+0  00000+0 0  9996
2 41838   5.7379  72.6706 0001784  27.9307 250.9664  0.99853586 35141
GOES 16                 
1 41866U 16071A   26164.21066404 -.00000078  00000+0  00000+0 0  9996
2 41866   0.3305  85.5460 0000229 292.4493 214.6862  1.00270074 35066
TIANLIAN 1-04           
1 41869U 16072A   26164.22655441  .00000043  00000+0  00000+0 0  9997
2 41869   0.8580  82.9435 0042150  89.7371 347.2197  1.00270734 35262
WGS F8 (USA 272)        
1 41879U 16075A   26163.86475786  .00000000  00000+0  00000+0 0  9995
2 41879   0.0398  45.6063 0000228 279.8306  36.8804  1.00266841 34770
FENGYUN 4A              
1 41882U 16077A   26164.28732979 -.00000346  00000+0  00000+0 0  9992
2 41882   2.3115  80.3373 0008627 152.5908 255.8996  1.00270763 34898
ECHOSTAR 19             
1 41893U 16079A   26164.24367394 -.00000126  00000+0  00000+0 0  9993
2 41893   0.0166  15.7997 0001180  57.7099 178.6741  1.00269582 34661
JCSAT-110A (JCSAT-15)   
1 41903U 16082A   26164.28464311 -.00000338  00000+0  00000+0 0  9995
2 41903   0.0172 357.4526 0000448 126.0848 350.6044  1.00269808 34728
STAR ONE D1             
1 41904U 16082B   26164.26055559 -.00000199  00000+0  00000+0 0  9999
2 41904   0.0142  42.0623 0002299  52.6348 176.6877  1.00271904 34737
TJS-2                   
1 41911U 17001A   26164.06216709  .00000006  00000+0  00000+0 0  9999
2 41911   0.8224  85.3786 0000507  44.1815 220.7677  1.00272819 34677
SBIRS GEO-4 (USA 273)   
1 41937U 17004A   26164.26698512  .00000134  00000+0  00000+0 0  9990
2 41937   2.2354  43.1647 0001910  32.9749 302.4613  1.00271427 34552
HISPASAT 36W-1          
1 41942U 17006A   26163.40025756 -.00000229  00000+0  00000+0 0  9993
2 41942   0.0083 275.5555 0001196 173.4599 279.8251  1.00274187 34193
TELKOM 3S               
1 41944U 17007A   26164.28628979 -.00000350  00000+0  00000+0 0  9994
2 41944   0.0199  31.5950 0002008  44.3167  46.7589  1.00272621 34109
INTELSAT 32E (IS-32E)   
1 41945U 17007B   26163.39109420 -.00000253  00000+0  00000+0 0  9993
2 41945   0.0171 333.1752 0000438 350.3516  34.8174  1.00277242 34173
ECHOSTAR 23             
1 42070U 17014A   26163.88456728  .00000000  00000+0  00000+0 0  9990
2 42070   0.0263   0.1393 0001913  80.2398  29.3718  1.00270657 33886
WGS F9 (USA 275)        
1 42075U 17016A   26163.69013870 -.00000082  00000+0  00000+0 0  9994
2 42075   0.0138 310.2654 0000222 359.2743 187.9245  1.00270053 33855
SES-10                  
1 42432U 17017A   26163.82185532 -.00000259  00000+0  00000+0 0  9998
2 42432   0.0216  32.9552 0002610  54.5627  42.6032  1.00270431 33719
CHINASAT 16 (SJ-13)     
1 42662U 17018A   26162.75888278 -.00000336  00000+0  00000+0 0  9998
2 42662   0.0980  91.3752 0003926 138.4966  53.9780  1.00270081 33695
KOREASAT 7              
1 42691U 17023A   26164.28585646 -.00000349  00000+0  00000+0 0  9993
2 42691   0.0214  17.8161 0000751  59.6941  42.8934  1.00272687 33337
SGDC                    
1 42692U 17023B   26163.48354492 -.00000235  00000+0  00000+0 0  9992
2 42692   0.0401  75.3248 0002612  16.6855 268.0292  1.00270110 33356
GSAT-9                  
1 42695U 17024A   26164.06832046  .00000000  00000+0  00000+0 0  9996
2 42695   0.0324  59.4256 0002546  27.0024 296.9491  1.00265516 33259
INMARSAT 5-F4           
1 42698U 17025A   26164.06017375  .00000088  00000+0  00000+0 0  9996
2 42698   0.0187  14.9513 0000445 345.1555 339.4217  1.00272793 33232
SES-15                  
1 42709U 17026A   26163.66693674  .00000074  00000+0  00000+0 0  9992
2 42709   0.0213 330.6262 0000880  52.5288 348.7826  1.00271358  7381
QZS-2 (MICHIBIKI-2)     
1 42738U 17028A   26160.53939596 -.00000147  00000+0  00000+0 0  9997
2 42738  39.4388 243.2674 0760581 269.1776  81.0235  1.00285994  7547
VIASAT-2                
1 42740U 17029A   26163.60717809 -.00000251  00000+0  00000+0 0  9999
2 42740   0.0183 295.2615 0000119 118.2760 356.0955  1.00272406 33154
EUTELSAT 172B           
1 42741U 17029B   26163.86909122  .00000008  00000+0  00000+0 0  9998
2 42741   0.0459 141.9963 0000231 116.2900 127.7980  1.00270798 33695
GSAT-19                 
1 42747U 17031A   26163.98718920  .00000139  00000+0  00000+0 0  9999
2 42747   0.0489 265.9217 0007157 159.9901 238.6390  1.00273025 33101
ECHOSTAR 21             
1 42749U 17032A   26164.26490510  .00000077  00000+0  00000+0 0  9997
2 42749   1.7715 355.4438 0002053  94.1521 277.6181  1.00272051 33065
BULGARIASAT-1           
1 42801U 17038A   26164.04934037  .00000024  00000+0  00000+0 0  9997
2 42801   0.0125 319.4488 0003180 137.1834 184.3996  1.00269518 32806
HELLAS-SAT 3            
1 42814U 17040A   26164.27062513  .00000165  00000+0  00000+0 0  9996
2 42814   0.0408  33.5768 0004776  18.1739 346.2574  1.00269212 32760
